OBJECT_NAME,OBJECT_ID,EPOCH,MEAN_MOTION,ECCENTRICITY,INCLINATION,RA_OF_ASC_NODE,ARG_OF_PERICENTER,MEAN_ANOMALY,EPHEMERIS_TYPE,CLASSIFICATION_TYPE,NORAD_CAT_ID,ELEMENT_SET_NO,REV_AT_EPOCH,BSTAR,MEAN_MOTION_DOT,MEAN_MOTION_DDOT
SCD 1,1993-009B,2026-06-30T21:28:18.565248,14.46123996,.00416308,24.9686,122.9381,283.1212,122.0803,0,U,22490,999,76310,.65525319E-4,.426E-5,0
TECHSAT 1B (GO-32),1998-043D,2026-06-30T23:20:23.293248,14.24431061,.00017164,99.0073,175.0791,137.9285,222.2025,0,U,25397,999,45329,.46975487E-4,.62E-6,0
SCD 2,1998-060A,2026-06-30T18:42:21.678048,14.45530802,.00165331,24.9967,348.3375,266.8289,222.9757,0,U,25504,999,46229,.56431839E-4,.385E-5,0
DLR-TUBSAT,1999-029B,2026-06-30T22:24:30.300192,14.52430297,.00133065,98.6701,177.8902,311.7884,48.2173,0,U,25757,999,43524,.37586049E-4,.105E-5,0
TERRA,1999-068A,2026-06-30T22:15:11.508192,14.61113975,.00026279,97.9449,230.9283,152.3443,309.8686,0,U,25994,999,41161,.970907E-4,.433E-5,0
MAROC-TUBSAT,2001-056D,2026-06-30T12:16:46.036416,13.70263063,.00205701,99.8087,358.6226,108.4018,320.3548,0,U,27004,999,22801,.18682082E-4,-.3E-6,0
AQUA,2002-022A,2026-06-30T22:41:08.839680,14.62178762,.00006951,98.4284,151.5035,75.4541,342.4000,0,U,27424,999,28528,.16955776E-3,.804E-5,0
SHIYAN-1 (SY-1),2004-012A,2026-06-30T22:45:05.177376,15.34108843,.00044234,97.8691,260.9130,341.0141,19.0935,0,U,28220,999,21320,.48391482E-3,.15906E-3,0
AURA,2004-026A,2026-06-30T21:15:24.624288,14.61349500,.00011663,98.3423,138.4529,85.0498,275.0836,0,U,28376,999,16821,.17363136E-3,.81E-5,0
IRS-P5 (CARTOSAT-1),2005-017A,2026-06-30T23:16:14.145888,14.91085668,.00021373,97.5305,204.4089,64.1272,296.0167,0,U,28649,999,14587,.14658645E-3,.14E-4,0
SINAH 1,2005-043D,2026-06-30T22:14:52.320480,14.64166973,.00134608,98.2878,316.3310,229.8265,130.1759,0,U,28893,999,10253,.74703301E-4,.344E-5,0
RESURS-DK 1,2006-021A,2026-06-30T18:49:50.125152,15.13271968,.00066949,69.9341,304.3547,285.3513,74.6913,0,U,29228,999,10463,.12821145E-3,.2178E-4,0
ARIRANG-2 (KOMPSAT-2),2006-031A,2026-06-30T23:22:03.521568,14.64668575,.00154097,97.8302,5.7532,34.4524,119.2697,0,U,29268,999,6349,.75518066E-4,.357E-5,0
LAPAN-TUBSAT,2007-001A,2026-06-30T23:47:24.565056,14.85961655,.00129771,98.1339,181.5266,135.6849,224.5407,0,U,29709,999,5320,-.19250523E-4,-.226E-5,0
HAIYANG-1B,2007-010A,2026-06-30T10:18:40.329216,14.31030131,.00138922,98.3501,162.7616,157.0891,203.0915,0,U,31113,999,253,.50222182E-4,.91E-6,0
COSMO-SKYMED 1,2007-023A,2026-06-30T23:16:46.937280,14.97170900,.00014992,97.8855,13.9422,84.2100,275.9292,0,U,31598,999,3185,.18912122E-3,.2126E-4,0
TERRASAR-X,2007-026A,2026-06-30T15:05:33.044352,15.19151223,.00019221,97.4453,189.1447,88.4966,271.6489,0,U,31698,999,5526,.27537456E-4,.511E-5,0
WORLDVIEW-1 (WV-1),2007-041A,2026-06-30T22:42:23.496192,15.24416123,.00010434,97.3896,301.4937,317.1515,42.9641,0,U,32060,999,4497,.27954255E-3,.6785E-4,0
YAOGAN-3,2007-055A,2026-06-30T22:53:37.889664,14.90829464,.00016108,97.8144,211.6948,79.2057,280.9342,0,U,32289,999,792,.15912504E-3,.1511E-4,0
COSMO-SKYMED 2,2007-059A,2026-06-30T22:23:47.635008,14.82156605,.00013414,97.8888,5.3318,89.6182,270.5185,0,U,32376,999,404,.57798423E-4,.408E-5,0
RADARSAT-2,2007-061A,2026-06-30T23:05:17.848032,14.29979860,.0001304,98.5772,188.6971,84.5067,275.6264,0,U,32382,999,96792,-.4905465E-4,-.17E-5,0
CARTOSAT-2A,2008-021A,2026-06-30T21:55:16.115808,14.79259326,.00132879,97.7629,230.1531,69.1858,291.0776,0,U,32783,999,98083,.10854494E-3,.758E-5,0
HUANJING 1A (HJ-1A),2008-041A,2026-06-30T23:43:55.955712,14.84018412,.0020668,97.6682,167.2936,92.6625,267.6956,0,U,33320,999,96045,.1699518E-3,.1369E-4,0
HUANJING 1B (HJ-1B),2008-041B,2026-06-30T23:08:28.659840,14.83338576,.00372588,97.6519,170.4001,136.1746,224.2436,0,U,33321,999,96045,.28497207E-4,.184E-5,0
GEOEYE 1,2008-042A,2026-06-30T22:50:01.773024,14.64638626,.00049925,98.1334,255.7136,30.5311,329.6182,0,U,33331,999,95216,.10150042E-3,.492E-5,0
THEOS,2008-049A,2026-06-30T22:03:30.424896,14.20135240,.00011325,98.5568,238.7564,82.2062,277.9243,0,U,33396,999,91991,.84233294E-4,.137E-5,0
COSMO-SKYMED 3,2008-054A,2026-06-30T22:53:59.089632,15.07035191,.00147416,97.8266,40.7532,216.2524,143.7705,0,U,33412,999,95901,.27190618E-3,.4019E-4,0
YAOGAN-4,2008-061A,2026-06-30T09:21:11.637792,14.83225724,.0015085,97.9309,114.8027,32.8748,327.3401,0,U,33446,999,94762,.13690122E-3,.1066E-4,0
GOSAT (IBUKI),2009-002A,2026-06-30T18:35:41.844768,14.67536972,.00012163,98.0904,292.6868,80.5142,279.6200,0,U,33492,999,93345,-.1958554E-5,-.59E-6,0
DEIMOS-1,2009-041A,2026-06-30T22:55:28.634592,14.75252166,.00023519,97.7412,338.5863,112.1501,247.9959,0,U,35681,999,90891,.10496153E-3,.662E-5,0
DUBAISAT-1,2009-041B,2026-06-30T18:59:04.290432,14.75145628,.00110128,98.0069,314.9007,34.0637,326.1276,0,U,35682,999,90710,.14081221E-3,.9E-5,0
OCEANSAT-2,2009-051A,2026-06-30T22:11:46.944960,13.99659834,.0016331,98.2318,167.4052,195.1138,164.9543,0,U,35931,999,88125,-.13295426E-3,-.232E-5,0
WORLDVIEW-2 (WV-2),2009-055A,2026-06-30T22:36:13.433760,14.37903335,.00045842,98.4764,255.2032,166.1913,193.9400,0,U,35946,999,87762,.59709952E-4,.137E-5,0
SMOS,2009-059A,2026-06-30T22:47:27.758112,14.39779969,.00013138,98.4424,9.0829,87.6447,272.4892,0,U,36036,999,87543,.96176289E-4,.258E-5,0
YAOGAN-7,2009-069A,2026-06-30T23:12:37.933344,14.78023531,.00245775,98.0054,67.7481,358.2767,1.8355,0,U,36110,999,89166,.79305306E-4,.522E-5,0
TANDEM-X,2010-030A,2026-06-30T13:30:41.966208,15.19150820,.00017551,97.4456,189.0787,96.3101,263.8334,0,U,36605,999,88867,.23207727E-4,.42E-5,0
CARTOSAT-2B,2010-035A,2026-06-30T22:35:27.187296,14.78598935,.00119154,97.9949,232.4030,140.3574,219.8511,0,U,36795,999,86188,.1150204E-5,-.44E-6,0
YAOGAN-10,2010-038A,2026-06-30T23:08:25.534752,14.85388271,.00016463,97.8967,205.2580,86.3658,3.4691,0,U,36834,999,85925,.16047595E-3,.1328E-4,0
COSMO-SKYMED 4,2010-060A,2026-06-30T22:42:02.088000,14.82158694,.00014925,97.8882,5.3462,84.5594,275.5790,0,U,37216,999,84660,.14338466E-3,.1089E-4,0
RESOURCESAT-2,2011-015A,2026-06-30T22:54:23.203872,14.21603182,.00107523,98.7639,249.3009,212.4016,147.6502,0,U,37387,999,78813,.69149751E-4,.107E-5,0
HAIYANG-2A,2011-043A,2026-06-30T22:40:31.209888,13.73989989,.00047662,99.3389,184.3115,62.3488,297.8144,0,U,37781,999,74854,-.10882763E-3,-.146E-5,0
RASAT,2011-044D,2026-06-30T22:53:19.199616,14.68178044,.00212238,98.0586,273.1403,145.4478,325.5682,0,U,37791,999,79520,.33800908E-4,.146E-5,0
SRMSAT,2011-058D,2026-06-30T17:35:15.393120,14.11578376,.00117885,19.9733,337.4831,353.4790,121.0128,0,U,37841,999,75973,.64634737E-4,.384E-5,0
PLEIADES 1A,2011-076F,2026-06-30T22:11:51.912096,14.58538080,.00017669,98.1980,256.8430,87.6535,27.7493,0,U,38012,999,77399,.127744E-4,.14E-6,0
ZIYUAN 1-02C (ZY 1-02C),2011-079A,2026-06-30T23:51:39.196224,14.38224620,.00051167,98.4073,249.0137,266.3442,178.8619,0,U,38038,999,76119,.63346874E-4,.149E-5,0
ARIRANG-3 (KOMPSAT-3),2012-025B,2026-06-30T22:10:39.353376,14.62218095,.00067715,98.1177,139.1474,75.0316,285.1634,0,U,38338,999,75335,.95793414E-4,.436E-5,0
EXACTVIEW-1 (ADS-1B),2012-039C,2026-06-30T19:01:05.146752,14.24988592,.00117391,98.9793,299.4908,129.3602,230.8618,0,U,38709,999,72464,.69835476E-4,.117E-5,0
SPOT 6,2012-047A,2026-06-30T22:02:15.580896,14.58529938,.00012526,98.2120,249.0662,76.6315,283.5024,0,U,38755,999,73505,.41141297E-4,.145E-5,0
PLEIADES 1B,2012-068A,2026-06-30T22:29:15.848736,14.58568069,.00016992,98.1950,256.7992,85.0216,275.1177,0,U,39019,999,72285,.38728895E-4,.134E-5,0
GOKTURK 2,2012-073A,2026-06-30T23:34:39.622656,14.75557673,.00011051,97.6809,18.7221,60.5042,299.6278,0,U,39030,999,72654,.13913307E-3,.901E-5,0
LANDSAT 8,2013-008A,2026-06-30T21:30:23.079744,14.57103530,.00013475,98.2298,251.8683,93.4910,266.6442,0,U,39084,999,69989,.84825489E-4,.337E-5,0
SARAL,2013-009A,2026-06-30T22:29:34.499040,14.32859237,.00009271,98.5557,8.3302,207.6498,152.4637,0,U,39086,999,69757,.45007136E-4,.79E-6,0
GAOFEN-1,2013-018A,2026-06-30T22:55:34.418208,14.76503122,.00159293,97.9097,253.7433,218.3132,141.6947,0,U,39150,999,71027,.11076026E-3,.722E-5,0
VNREDSAT 1,2013-021B,2026-06-30T22:55:37.131168,14.64869752,.00017068,97.9076,234.8427,82.2524,277.8873,0,U,39160,999,70230,.63138361E-4,.292E-5,0
ARIRANG-5 (KOMPSAT-5),2013-042A,2026-07-01T04:47:10.490208,15.04536517,.0005219,97.6200,8.7016,91.0435,269.1389,0,U,39227,999,70596,.15192E-3,.2068E-4,0
SKYSAT-A,2013-066C,2026-06-30T02:06:10.761984,15.13042686,.0019696,97.3807,230.0738,269.2466,90.6508,0,U,39418,999,69043,.19231518E-3,.335E-4,0
DUBAISAT-2,2013-066D,2026-06-30T23:38:03.034176,15.10282163,.00108081,97.4563,171.7677,355.1814,4.9310,0,U,39419,999,68847,.2635682E-3,.4258E-4,0
GPM-CORE,2014-009C,2026-06-30T22:26:02.082048,15.44854640,.00113108,64.9716,262.0760,257.1193,102.8685,0,U,39574,999,69993,.24726327E-3,.11454E-3,0
SENTINEL-1A,2014-016A,2026-06-30T22:40:15.778848,14.59199788,.00013756,98.1773,189.2763,85.9129,274.2228,0,U,39634,999,65202,.36770933E-4,.128E-5,0
KAZEOSAT 1,2014-024A,2026-06-30T23:13:53.433984,14.42084333,.00011705,98.3209,254.0723,78.3230,281.8091,0,U,39731,999,64054,-.948769E-5,-.74E-6,0
ALOS-2,2014-029A,2026-06-30T20:50:50.445024,14.79474729,.00015985,97.9232,278.8362,87.5110,272.6284,0,U,39766,999,65360,.10487953E-3,.732E-5,0
KAZEOSAT 2,2014-033A,2026-06-30T23:18:55.594656,14.85485693,.00070433,97.5394,20.8548,276.5502,83.4912,0,U,40010,999,65100,.10888565E-3,.89E-5,0
HODOYOSHI-4,2014-033B,2026-06-30T22:51:48.146112,14.88160935,.0021921,97.5449,6.1109,259.8975,99.9769,0,U,40011,999,65085,.16990971E-3,.1519E-4,0
DEIMOS-2,2014-033D,2026-06-30T21:58:27.939360,14.93759089,.00008211,97.5811,55.9217,59.0651,301.0650,0,U,40013,999,63977,.11939211E-3,.121E-4,0
HODOYOSHI-3,2014-033F,2026-06-30T10:56:00.356352,14.85414117,.00316739,97.6429,343.9629,312.6929,47.1619,0,U,40015,999,64959,.11806827E-3,.973E-5,0
